[{"OBJECT_NAME":"STARLINK-32432","OBJECT_ID":"2024-175Q","EPOCH":"2026-03-09T15:04:14.896416","MEAN_MOTION":15.30202075,"ECCENTRICITY":9.72e-5,"INCLINATION":53.1597,"RA_OF_ASC_NODE":194.3614,"ARG_OF_PERICENTER":61.6966,"MEAN_ANOMALY":298.4133,"EPHEMERIS_TYPE":0,"CLASSIFICATION_TYPE":"U","NORAD_CAT_ID":61257,"ELEMENT_SET_NO":999,"REV_AT_EPOCH":8144,"BSTAR":-3.798e-5,"MEAN_MOTION_DOT":-1.484e-5,"MEAN_MOTION_DDOT":0},{"OBJECT_NAME":"TEVEL2-3","OBJECT_ID":"2025-052J","EPOCH":"2026-03-09T15:29:22.754400","MEAN_MOTION":15.30377031,"ECCENTRICITY":0.0004761,"INCLINATION":97.3994,"RA_OF_ASC_NODE":324.7775,"ARG_OF_PERICENTER":105.7353,"MEAN_ANOMALY":254.4413,"EPHEMERIS_TYPE":0,"CLASSIFICATION_TYPE":"U","NORAD_CAT_ID":63218,"ELEMENT_SET_NO":999,"REV_AT_EPOCH":5485,"BSTAR":0.00069446,"MEAN_MOTION_DOT":0.00020365,"MEAN_MOTION_DDOT":0}]
