STARLINK-32432          
1 61257U 24175Q   26068.62795019 -.00001484  00000+0 -37980-4 0  9990
2 61257  53.1597 194.3614 0000972  61.6966 298.4133 15.30202075 81445
TEVEL2-3                
1 63218U 25052J   26068.64540225  .00020365  00000+0  69446-3 0  9991
2 63218  97.3994 324.7775 0004761 105.7353 254.4413 15.30377031 54855
